CCSDS_OEM_VERS = 2.0  
CREATION_DATE  = 2024-11-15T14:45:31
ORIGINATOR     = ESOC/OPS-GFA                            
 
 



META_START
OBJECT_NAME          = LISA                                    
OBJECT_ID            = -1000                                   
CENTER_NAME          = SUN                     
REF_FRAME            = EME2000 
TIME_SYSTEM          = TDB
START_TIME           = 2036-12-09T00:00:00.00000094            
STOP_TIME            = 2047-09-09T13:04:48.00000111            
INTERPOLATION        = HERMITE                                 
INTERPOLATION_DEGREE = 7                                       
META_STOP

2038-11-05T16:57:51.94105971   134931571.083878    58246164.614218    23987588.799010 -12.6047732  24.8601726  10.8756296    -0.000005423150    -0.000002340864    -0.000000964035
2038-11-09T01:25:12.54143924   131055378.004873    65344483.718993    27095421.626576 -14.1531572  24.1407667  10.5782834    -0.000005265586    -0.000002625267    -0.000001088575
2038-11-12T09:52:33.14181878   126737570.834304    72222628.751665    30111958.667673 -15.6533040  23.3402895  10.2454061    -0.000005090168    -0.000002900508    -0.000001209311
2038-11-15T18:19:53.74219832   121992861.550617    78857516.291228    33027074.245275 -17.1001335  22.4615332   9.8781600    -0.000004897536    -0.000003165638    -0.000001325826
2038-11-19T02:47:14.34257770   116837405.030077    85226909.887441    35830996.196757 -18.4887600  21.5075589   9.4778259    -0.000004688391    -0.000003419749    -0.000001437722
2038-11-22T11:33:00.60407859   111266830.890641    91332141.786831    38524340.868628 -19.8194439  20.4776352   9.0440894    -0.000004462605    -0.000003662875    -0.000001545015
2038-11-25T20:18:46.86557931   105319123.592223    97127828.536056    41087118.251102 -21.0822725  19.3788654   8.5799353    -0.000004221767    -0.000003893197    -0.000001646901
2038-11-29T05:04:33.12708003    99014636.066996   102594506.198622    43510718.167009 -22.2729957  18.2150869   8.0869862    -0.000003966753    -0.000004109935    -0.000001743036
2038-12-02T13:50:19.38858076    92374918.722942   107713857.554227    45787015.948811 -23.3876252  16.9903555   7.5669614    -0.000003698487    -0.000004312366    -0.000001833099
2038-12-05T22:49:20.38094059    85403232.019609   112481258.582401    47913980.382085 -24.4251635  15.7053535   7.0201473    -0.000003417153    -0.000004500311    -0.000001917009
2038-12-09T07:48:21.37330026    78141180.742123   116866261.402176    49878053.743215 -25.3790034  14.3678287   6.4498376    -0.000003124480    -0.000004672580    -0.000001994236
2038-12-12T16:47:22.36565993    70613633.663752   120854228.233927    51672673.981587 -26.2459913  12.9824338   5.8580180    -0.000002821517    -0.000004828616    -0.000002064530
2038-12-16T01:46:23.35801960    62846333.666659   124431899.420788    53291867.657290 -27.0232844  11.5539755   5.2467430    -0.000002509346    -0.000004967923    -0.000002127666
2038-12-19T10:52:49.26067618    54853478.359389   127591925.524885    54732324.516588 -27.7093325  10.0851311   4.6171577    -0.000002188580    -0.000005090238    -0.000002183525
2038-12-22T19:59:15.16333260    46674083.625828   130318104.303093    55986676.834624 -28.3006729   8.5831319   3.9723607    -0.000001860823    -0.000005194966    -0.000002231835
2038-12-26T05:05:41.06598918    38336084.452575   132601509.840629    57050807.198701 -28.7954324   7.0531598   3.3145780    -0.000001527229    -0.000005281797    -0.000002272450
2038-12-29T14:12:06.96864561    29867913.465424   134434740.269459    57921253.386037 -29.1920768   5.5004771   2.6460738    -0.000001188964    -0.000005350490    -0.000002305257
2039-01-01T23:16:34.25963398    21301899.031406   135811474.668141    58594985.702049 -29.4893134   3.9310482   1.9694179    -0.000000847345    -0.000005400849    -0.000002330158
2039-01-05T08:21:01.55062235    12663718.662914   136728260.126007    59070276.317285 -29.6864763   2.3496062   1.2866532    -0.000000503413    -0.000005432795    -0.000002347110
2039-01-08T17:25:28.84161057     3982662.221406   137182376.113440    59345681.621899 -29.7830628   0.7615342   0.6001052    -0.000000158348    -0.000005446279    -0.000002356080
2039-01-12T02:29:56.13259894    -4711883.524114   137172673.222753    59420437.213663 -29.7789139  -0.8277803  -0.0878953     0.000000186674    -0.000005441316    -0.000002357065
2039-01-15T10:58:40.89050942   -13326956.636262   136704731.545825    59296114.343520 -29.6753467  -2.4013545  -0.7699853     0.000000527968    -0.000005418223    -0.000002350168
2039-01-18T19:27:25.64842007   -21897728.099230   135782107.422052    58974571.827620 -29.4732075  -3.9656320  -1.4489461     0.000000866939    -0.000005377167    -0.000002335475
2039-01-22T03:56:10.40633055   -30395752.559849   134408246.141767    58457042.709091 -29.1733314  -5.5154353  -2.1225291     0.000001202471    -0.000005318344    -0.000002313059
2039-01-25T12:24:55.16424104   -38792872.617962   132588083.007584    57745407.624180 -28.7768744  -7.0456523  -2.7885108     0.000001533467    -0.000005242007    -0.000002283021
2039-01-28T20:41:07.94648478   -47040041.731302   130334452.885839    56844776.979310 -28.2867043  -8.5473803  -3.4430116     0.000001858016    -0.000005148729    -0.000002245591
2039-02-01T04:57:20.72872853   -55132102.791823   127650993.248449    55756678.487803 -27.7036806 -10.0197233  -4.0856357     0.000002175941    -0.000005038695    -0.000002200848
2039-02-04T13:13:33.51097228   -63042514.689660   124546890.012197    54484847.414568 -27.0298644 -11.4578972  -4.7142937     0.000002486230    -0.000004912316    -0.000002148960
2039-02-07T21:29:46.29321603   -70745372.999672   121032692.861490    53033615.134007 -26.2676052 -12.8572443  -5.3269479     0.000002787900    -0.000004770053    -0.000002090119
2039-02-11T05:52:35.73337872   -78225576.236595   117114640.121516    51405544.868985 -25.4183097 -14.2150764  -5.9224221     0.000003080396    -0.000004612188    -0.000002024441
2039-02-14T14:15:25.17354141   -85447916.746076   112810490.971896    49608004.253941 -24.4858739 -15.5250630  -6.4979406     0.000003362382    -0.000004439461    -0.000001952234
2039-02-17T22:38:14.61370427   -92388789.065118   108134704.679988    47647037.847033 -23.4734672 -16.7829895  -7.0516503     0.000003632979    -0.000004252473    -0.000001873751
2039-02-21T07:01:04.05386696   -99025540.128920   103102933.861581    45529215.408311 -22.3845073 -17.9848205  -7.5817734     0.000003891349    -0.000004051863    -0.000001789260
2039-02-24T15:38:21.49716156  -105354961.125684    97715368.528436    43254590.007125 -21.2190575 -19.1300430  -8.0880873     0.000004137412    -0.000003837651    -0.000001698769
2039-02-28T00:15:38.94045617  -111335952.961555    92004614.282358    40836902.301467 -19.9841847 -20.2112907  -8.5673390     0.000004369615    -0.000003611141    -0.000001602829
2039-03-03T08:52:56.38375077  -116948960.789014    85989746.656459    38284231.880905 -18.6840157 -21.2251033  -9.0179932     0.000004587247    -0.000003373092    -0.000001501762
2039-03-06T17:30:13.82704537  -122175655.771544    79690812.688388    35605090.017018 -17.3228770 -22.1682455  -9.4386102     0.000004789645    -0.000003124292    -0.000001395902
2039-03-10T02:31:26.78726417  -127021820.264668    73095691.150622    32794282.337324 -15.8981361 -23.0418278  -9.8296944     0.000004977079    -0.000002864256    -0.000001285043
2039-03-13T11:32:39.74748296  -131444686.496174    66256963.376774    29874181.242173 -14.4211296 -23.8382059 -10.1878341     0.000005147940    -0.000002595048    -0.000001170063
2039-03-16T20:33:52.70770191  -135429722.944201    59197525.578759    26854565.812868 -12.8967680 -24.5548325 -10.5118818     0.000005301711    -0.000002317549    -0.000001051339
2039-03-20T05:35:05.66792070  -138963850.430773    51940979.007863    23745533.506989 -11.3301048 -25.1894206 -10.8008019     0.000005437929    -0.000002032663    -0.000000929258
2039-03-23T14:50:56.71509586  -142044022.287670    44488950.691891    20547760.951072  -9.7214419 -25.7414786 -11.0543787     0.000005556514    -0.000001740428    -0.000000803835
2039-03-27T00:06:47.76227118  -144648765.025450    36888005.464510    17281209.568888  -8.0807741 -26.2072073 -11.2708769     0.000005656673    -0.000001442640    -0.000000675842
2039-03-30T09:22:38.80944635  -146769509.017032    29163623.018800    13956830.884796  -6.4135369 -26.5851224 -11.4496048     0.000005738108    -0.000001140260    -0.000000545691
2039-04-02T18:38:29.85662151  -148399285.558346    21341675.977659    10585761.048174  -4.7252446 -26.8740234 -11.5899924     0.000005800578    -0.000000834265    -0.000000413803
2039-04-06T03:31:14.79795609  -149528556.227748    13485871.723058     7195490.327154  -3.0295744 -27.0722664 -11.6912042     0.000005843738    -0.000000527105    -0.000000281235
2039-04-09T12:23:59.73929068  -150162546.955042     5585392.628512     3781383.581282  -1.3241146 -27.1808139 -11.7536784     0.000005867806    -0.000000218313    -0.000000147787
2039-04-12T21:16:44.68062526  -150299218.286623    -2333589.901753      354751.058780   0.3855644 -27.1993334 -11.7772208     0.000005872714     0.000000091130    -0.000000013884
2039-04-16T06:09:29.62195969  -149938153.554834   -10244848.878776    -3073058.192845   2.0938815 -27.1277780 -11.7617602     0.000005858453     0.000000400244     0.000000120052
2039-04-19T14:45:02.94390492  -149084474.022914   -18094366.205155    -6478614.953612   3.7892513 -26.9671161 -11.7076106     0.000005825222     0.000000706962     0.000000253122
2039-04-22T23:20:36.26584999  -147740575.112031   -25884389.190265    -9862870.245861   5.4722372 -26.7177705 -11.6149602     0.000005773108     0.000001011415     0.000000385383
2039-04-26T07:56:09.58779506  -145910842.977827   -33589296.701515   -13214693.656515   7.1373820 -26.3805373 -11.4841040     0.000005702268     0.000001312645     0.000000516419
